[{"OBJECT_NAME":"STARLINK-2298","OBJECT_ID":"2021-024AX","EPOCH":"2026-03-10T00:00:02.999808","MEAN_MOTION":15.15852398,"ECCENTRICITY":0.00022088,"INCLINATION":53.0935,"RA_OF_ASC_NODE":330.2189,"ARG_OF_PERICENTER":83.1069,"MEAN_ANOMALY":79.3652,"EPHEMERIS_TYPE":0,"CLASSIFICATION_TYPE":"U","NORAD_CAT_ID":48022,"ELEMENT_SET_NO":999,"REV_AT_EPOCH":575,"BSTAR":0.0020729399,"MEAN_MOTION_DOT":0.00040038,"MEAN_MOTION_DDOT":0},{"OBJECT_NAME":"LILIUM-2","OBJECT_ID":"2025-276P","EPOCH":"2026-03-09T17:57:43.169184","MEAN_MOTION":15.17362397,"ECCENTRICITY":0.0005992,"INCLINATION":97.4225,"RA_OF_ASC_NODE":143.7942,"ARG_OF_PERICENTER":8.9383,"MEAN_ANOMALY":351.1956,"EPHEMERIS_TYPE":0,"CLASSIFICATION_TYPE":"U","NORAD_CAT_ID":66679,"ELEMENT_SET_NO":999,"REV_AT_EPOCH":1531,"BSTAR":0.00024211836,"MEAN_MOTION_DOT":4.769e-5,"MEAN_MOTION_DDOT":0}]
